NORAD_CAT_ID,OBJECT_NAME,OBJECT_TYPE,EPOCH,MEAN_MOTION,ECCENTRICITY,INCLINATION,RA_OF_ASC_NODE,ARG_OF_PERICENTER,MEAN_ANOMALY,BSTAR,MEAN_MOTION_DOT,MEAN_MOTION_DDOT,TLE_LINE0,TLE_LINE1,TLE_LINE2,SEMIMAJOR_AXIS,PERIOD,APOGEE,PERIGEE,DECAYED
49732.0,STARLINK-3246,PAYLOAD,2024-06-29 21:58:32,15.08823254,0.0001309,53.2179,52.571,91.676,268.4382,-0.00012157,-2.221e-05,0.0,0 STARLINK-3246,1 49732U 21115J   24181.91565594 -.00002221  00000-0 -12157-3 0  9993,2 49732  53.2179  52.5710 0001309  91.6760 268.4382 15.08823254142127,6917.932,95.439,540.702,538.891,0.0
49732.0,STARLINK-3246,PAYLOAD,2024-06-30 21:49:17,15.0885833,0.0001353,53.2172,48.1113,85.0002,275.1145,0.00010037,1.311e-05,0.0,0 STARLINK-3246,1 49732U 21115J   24182.90922845  .00001311  00000-0  10037-3 0  9991,2 49732  53.2172  48.1113 0001353  85.0002 275.1145 15.08858330143387,6917.824,95.436,540.625,538.753,0.0
49732.0,STARLINK-3246,PAYLOAD,2024-07-01 21:40:05,15.08837571,0.0001132,53.2175,43.6522,78.0561,282.0558,0.00023384,3.435e-05,0.0,0 STARLINK-3246,1 49732U 21115J   24183.90283892  .00003435  00000-0  23384-3 0  9992,2 49732  53.2175  43.6522 0001132  78.0561 282.0558 15.08837571143537,6917.888,95.438,540.536,538.97,0.0
49732.0,STARLINK-3246,PAYLOAD,2024-07-02 07:12:24,15.08833395,0.0001168,53.2164,41.8688,73.5605,286.5515,9.8019e-05,1.272e-05,0.0,0 STARLINK-3246,1 49732U 21115J   24184.30028609  .00001272  00000-0  98019-4 0  9995,2 49732  53.2164  41.8688 0001168  73.5605 286.5515 15.08833395143594,6917.901,95.438,540.574,538.958,0.0
49732.0,STARLINK-3246,PAYLOAD,2024-07-02 15:09:20,15.08844732,0.0001344,53.2184,40.3852,88.3316,271.783,-0.00013403,-2.421e-05,0.0,0 STARLINK-3246,1 49732U 21115J   24184.63148740 -.00002421  00000-0 -13403-3 0  9992,2 49732  53.2184  40.3852 0001344  88.3316 271.7830 15.08844732142538,6917.866,95.437,540.661,538.801,0.0
49732.0,STARLINK-3246,PAYLOAD,2024-07-02 19:55:29,15.08845794,0.00014,53.2192,39.494,104.1764,255.9384,-0.00011236,-2.076e-05,0.0,0 STARLINK-3246,1 49732U 21115J   24184.83020470 -.00002076  00000-0 -11236-3 0  9991,2 49732  53.2192  39.4940 0001400 104.1764 255.9384 15.08845794142561,6917.863,95.437,540.696,538.759,0.0
49732.0,STARLINK-3246,PAYLOAD,2024-07-03 00:41:38,15.08848979,0.0001324,53.2187,38.5967,96.2705,263.8438,-8.442e-05,-1.632e-05,0.0,0 STARLINK-3246,1 49732U 21115J   24185.02892063 -.00001632  00000-0 -84420-4 0  9991,2 49732  53.2187  38.5967 0001324  96.2705 263.8438 15.08848979143708,6917.853,95.437,540.634,538.802,0.0
49732.0,STARLINK-3246,PAYLOAD,2024-07-03 19:46:16,15.08838871,0.0001234,53.2174,35.0245,110.9535,249.159,-4.5715e-05,-1.015e-05,0.0,0 STARLINK-3246,1 49732U 21115J   24185.82380568 -.00001015  00000-0 -45715-4 0  9990,2 49732  53.2174  35.0245 0001234 110.9535 249.1590 15.08838871143829,6917.884,95.438,540.603,538.895,0.0
49732.0,STARLINK-3246,PAYLOAD,2024-07-03 21:21:39,15.08841966,0.0001113,53.2172,34.726,99.4252,260.6866,-1.3539e-05,-5.03e-06,0.0,0 STARLINK-3246,1 49732U 21115J   24185.89004308 -.00000503  00000-0 -13539-4 0  9992,2 49732  53.2172  34.7260 0001113  99.4252 260.6866 15.08841966142724,6917.874,95.437,540.509,538.969,0.0
49732.0,STARLINK-3246,PAYLOAD,2024-07-04 06:53:58,15.08844953,0.0001089,53.2176,32.943,68.4321,291.6787,-3.45e-05,-8.37e-06,0.0,0 STARLINK-3246,1 49732U 21115J   24186.28748224 -.00000837  00000-0 -34500-4 0  9999,2 49732  53.2176  32.9430 0001089  68.4321 291.6787 15.08844953142783,6917.865,95.437,540.484,538.977,0.0
49732.0,STARLINK-3246,PAYLOAD,2024-07-04 21:12:27,15.08834491,0.0001278,53.2186,30.2672,88.2369,271.8769,3.5316e-05,2.74e-06,0.0,0 STARLINK-3246,1 49732U 21115J   24186.88364940  .00000274  00000-0  35316-4 0  9993,2 49732  53.2186  30.2672 0001278  88.2369 271.8769 15.08834491143984,6917.897,95.438,540.646,538.878,0.0
49732.0,STARLINK-3246,PAYLOAD,2024-07-04 22:47:50,15.08839384,0.0001182,53.2184,29.9728,94.9497,265.163,5.1689e-05,5.35e-06,0.0,0 STARLINK-3246,1 49732U 21115J   24186.94988559  .00000535  00000-0  51689-4 0  9999,2 49732  53.2184  29.9728 0001182  94.9497 265.1630 15.08839384142886,6917.882,95.438,540.565,538.93,0.0
49732.0,STARLINK-3246,PAYLOAD,2024-07-05 06:44:45,15.08837846,0.0001129,53.2185,28.4816,92.364,267.7481,5.5874e-05,6.01e-06,0.0,0 STARLINK-3246,1 49732U 21115J   24187.28108602  .00000601  00000-0  55874-4 0  9994,2 49732  53.2185  28.4816 0001129  92.3640 267.7481 15.08837846142931,6917.887,95.438,540.533,538.971,0.0
49732.0,STARLINK-3246,PAYLOAD,2024-07-05 21:03:13,15.08849248,0.0001105,53.2177,25.8084,88.4076,271.7042,9.727e-05,1.261e-05,0.0,0 STARLINK-3246,1 49732U 21115J   24187.87723779  .00001261  00000-0  97270-4 0  9996,2 49732  53.2177  25.8084 0001105  88.4076 271.7042 15.08849248144134,6917.852,95.437,540.482,538.953,0.0
49732.0,STARLINK-3246,PAYLOAD,2024-07-06 12:57:05,15.08833952,0.0001116,53.2165,22.8384,87.1099,273.0021,1.5789e-05,-3.7e-07,0.0,0 STARLINK-3246,1 49732U 21115J   24188.53964899 -.00000037  00000-0  15789-4 0  9996,2 49732  53.2165  22.8384 0001116  87.1099 273.0021 15.08833952144232,6917.899,95.438,540.536,538.992,0.0
49732.0,STARLINK-3246,PAYLOAD,2024-07-06 19:18:38,15.08833983,0.0001174,53.2172,21.6489,86.3402,273.7724,2.0702e-08,-2.87e-06,0.0,0 STARLINK-3246,1 49732U 21115J   24188.80461030 -.00000287  00000-0  20702-7 0  9996,2 49732  53.2172  21.6489 0001174  86.3402 273.7724 15.08833983143168,6917.899,95.438,540.576,538.952,0.0
49732.0,STARLINK-3246,PAYLOAD,2024-07-07 12:47:52,15.08838868,0.0001076,53.2184,18.3766,95.391,264.7205,1.2462e-05,-8.9e-07,0.0,0 STARLINK-3246,1 49732U 21115J   24189.53324635 -.00000089  00000-0  12462-4 0  9997,2 49732  53.2184  18.3766 0001076  95.3910 264.7205 15.08838868143270,6917.884,95.438,540.493,539.004,0.0
49732.0,STARLINK-3246,PAYLOAD,2024-07-07 19:09:24,15.08849472,0.0001225,53.2187,17.1883,90.5978,269.5154,-4.0624e-05,-9.35e-06,0.0,0 STARLINK-3246,1 49732U 21115J   24189.79820252 -.00000935  00000-0 -40624-4 0  9993,2 49732  53.2187  17.1883 0001225  90.5978 269.5154 15.08849472144424,6917.851,95.437,540.564,538.869,0.0
49732.0,STARLINK-3246,PAYLOAD,2024-07-08 12:38:39,15.08823568,0.0001371,53.219,13.9177,90.0937,270.0212,0.00017701,2.529e-05,0.0,0 STARLINK-3246,1 49732U 21115J   24190.52685102  .00002529  00000-0  17701-3 0  9997,2 49732  53.2190  13.9177 0001371  90.0937 270.0212 15.08823568144532,6917.931,95.439,540.744,538.847,0.0
49732.0,STARLINK-3246,PAYLOAD,2024-07-08 19:00:12,15.08834456,0.0001239,53.2191,12.7294,81.9983,278.115,9.7009e-05,1.256e-05,0.0,0 STARLINK-3246,1 49732U 21115J   24190.79180777  .00001256  00000-0  97009-4 0  9990,2 49732  53.2191  12.7294 0001239  81.9983 278.1150 15.08834456144575,6917.897,95.438,540.619,538.905,0.0
49732.0,STARLINK-3246,PAYLOAD,2024-07-09 12:29:27,15.08835258,0.0001124,53.2175,9.4565,86.1025,274.0095,-3.4338e-06,-3.42e-06,0.0,0 STARLINK-3246,1 49732U 21115J   24191.52045158 -.00000342  00000-0 -34338-5 0  9999,2 49732  53.2175   9.4565 0001124  86.1025 274.0095 15.08835258143571,6917.895,95.438,540.537,538.982,0.0
49732.0,STARLINK-3246,PAYLOAD,2024-07-09 17:15:36,15.0883575,0.0001174,53.2185,8.5655,83.2679,276.8446,2.0967e-05,4.6e-07,0.0,0 STARLINK-3246,1 49732U 21115J   24191.71917110  .00000046  00000-0  20967-4 0  9997,2 49732  53.2185   8.5655 0001174  83.2679 276.8446 15.08835750143601,6917.893,95.438,540.571,538.946,0.0
49732.0,STARLINK-3246,PAYLOAD,2024-07-10 04:23:18,15.08836526,0.0001158,53.2185,6.4834,79.1331,280.9791,2.3342e-05,8.4e-07,0.0,0 STARLINK-3246,1 49732U 21115J   24192.18285127  .00000084  00000-0  23342-4 0  9997,2 49732  53.2185   6.4834 0001158  79.1331 280.9791 15.08836526144789,6917.891,95.438,540.557,538.955,0.0
49732.0,STARLINK-3246,PAYLOAD,2024-07-10 21:52:32,15.0883809,0.0001153,53.2182,3.2104,76.1488,283.9633,2.0079e-05,3.2e-07,0.0,0 STARLINK-3246,1 49732U 21115J   24192.91149135  .00000032  00000-0  20079-4 0  9993,2 49732  53.2182   3.2104 0001153  76.1488 283.9633 15.08838090143781,6917.886,95.438,540.549,538.954,0.0
49732.0,STARLINK-3246,PAYLOAD,2024-07-11 21:43:18,15.08853549,9.57e-05,53.2178,358.75,100.7348,259.3752,9.3484e-05,1.201e-05,0.0,0 STARLINK-3246,1 49732U 21115J   24193.90507936  .00001201  00000-0  93484-4 0  9999,2 49732  53.2178 358.7500 0000957 100.7348 259.3752 15.08853549143936,6917.839,95.437,540.366,539.042,0.0
49732.0,STARLINK-3246,PAYLOAD,2024-07-12 04:04:52,15.08834637,0.0001255,53.2182,357.5569,73.9164,286.1966,-1.0375e-05,-4.53e-06,0.0,0 STARLINK-3246,1 49732U 21115J   24194.17005525 -.00000453  00000-0 -10375-4 0  9994,2 49732  53.2182 357.5569 0001255  73.9164 286.1966 15.08834637145082,6917.897,95.438,540.63,538.894,0.0
49732.0,STARLINK-3246,PAYLOAD,2024-07-12 19:58:44,15.08834611,0.0001165,53.2186,354.583,102.1012,258.0111,2.2318e-05,6.7e-07,0.0,0 STARLINK-3246,1 49732U 21115J   24194.83245677  .00000067  00000-0  22318-4 0  9990,2 49732  53.2186 354.5830 0001165 102.1012 258.0111 15.08834611144071,6917.897,95.438,540.568,538.956,0.0
49732.0,STARLINK-3246,PAYLOAD,2024-07-13 10:17:12,15.08838048,0.0001045,53.2172,351.9118,93.5136,266.5976,7.1546e-05,8.51e-06,0.0,0 STARLINK-3246,1 49732U 21115J   24195.42861432  .00000851  00000-0  71546-4 0  9997,2 49732  53.2172 351.9118 0001045  93.5136 266.5976 15.08838048145277,6917.886,95.438,540.474,539.028,0.0
49732.0,STARLINK-3246,PAYLOAD,2024-07-13 16:38:44,15.08848761,9.41e-05,53.2157,350.7225,100.4607,259.6492,1.2243e-05,-9.3e-07,0.0,0 STARLINK-3246,1 49732U 21115J   24195.69356932 -.00000093  00000-0  12243-4 0  9998,2 49732  53.2157 350.7225 0000941 100.4607 259.6492 15.08848761145315,6917.854,95.437,540.37,539.068,0.0
49732.0,STARLINK-3246,PAYLOAD,2024-07-14 14:54:09,15.08832773,0.000121,53.217,346.5606,85.6467,274.4663,5.8414e-05,6.42e-06,0.0,0 STARLINK-3246,1 49732U 21115J   24196.62093825  .00000642  00000-0  58414-4 0  9990,2 49732  53.2170 346.5606 0001210  85.6467 274.4663 15.08832773144347,6917.902,95.438,540.605,538.93,0.0
